{
  "type": "FeatureCollection",
  "features": [
    {
      "type": "Feature",
      "properties": {
        "norad_id": 35890,
        "name": "COSMOS 2251 DEB",
        "group": "cosmos-2251-debris",
        "lat": -66.35205963309484,
        "lon": -171.59784744717135,
        "alt_km": 691.7169387447775,
        "timestamp": "2025-12-19T14:48:36.645028+00:00",
        "meta_object_name": "COSMOS 2251 DEB",
        "meta_object_id": "1993-036AUD",
        "meta_epoch": "2025-12-16T22:53:46.078656",
        "meta_mean_motion": 14.57543512,
        "meta_eccentricity": 0.00539437,
        "meta_inclination": 73.9365,
        "meta_ra_of_asc_node": 234.6414,
        "meta_arg_of_pericenter": 358.5125,
        "meta_mean_anomaly": 1.5869,
        "meta_ephemeris_type": 0,
        "meta_classification_type": "U",
        "meta_norad_cat_id": 35890,
        "meta_element_set_no": 999,
        "meta_rev_at_epoch": 65212,
        "meta_bstar": 0.0012168345,
        "meta_mean_motion_dot": 5.621e-05,
        "meta_mean_motion_ddot": 0,
        "tle_line1": "1 35890U 93036AUD 25350.95400554  .00005621  00000+0  12168-2 0  9996",
        "tle_line2": "2 35890  73.9365 234.6414 0053943 358.5125   1.5869 14.57543512652129"
      },
      "geometry": {
        "type": "Point",
        "coordinates": [
          -171.59784744717135,
          -66.35205963309484
        ]
      }
    },
    {
      "type": "Feature",
      "properties": {
        "norad_id": 35891,
        "name": "COSMOS 2251 DEB",
        "group": "cosmos-2251-debris",
        "lat": -73.64202681693595,
        "lon": -22.844883009352948,
        "alt_km": 455.8084410789643,
        "timestamp": "2025-12-19T14:48:36.645038+00:00",
        "meta_object_name": "COSMOS 2251 DEB",
        "meta_object_id": "1993-036AUE",
        "meta_epoch": "2025-12-18T00:04:56.129088",
        "meta_mean_motion": 15.33761767,
        "meta_eccentricity": 0.00426193,
        "meta_inclination": 73.9894,
        "meta_ra_of_asc_node": 82.5774,
        "meta_arg_of_pericenter": 212.1701,
        "meta_mean_anomaly": 147.6903,
        "meta_ephemeris_type": 0,
        "meta_classification_type": "U",
        "meta_norad_cat_id": 35891,
        "meta_element_set_no": 999,
        "meta_rev_at_epoch": 67301,
        "meta_bstar": 0.0011390165,
        "meta_mean_motion_dot": 0.00038445,
        "meta_mean_motion_ddot": 0,
        "tle_line1": "1 35891U 93036AUE 25352.00342742  .00038445  00000+0  11390-2 0  9995",
        "tle_line2": "2 35891  73.9894  82.5774 0042619 212.1701 147.6903 15.33761767673010"
      },
      "geometry": {
        "type": "Point",
        "coordinates": [
          -22.844883009352948,
          -73.64202681693595
        ]
      }
    },
    {
      "type": "Feature",
      "properties": {
        "norad_id": 35895,
        "name": "COSMOS 2251 DEB",
        "group": "cosmos-2251-debris",
        "lat": -16.872585405216853,
        "lon": 160.7167040827341,
        "alt_km": 973.7827305312112,
        "timestamp": "2025-12-19T14:48:36.645049+00:00",
        "meta_object_name": "COSMOS 2251 DEB",
        "meta_object_id": "1993-036AUJ",
        "meta_epoch": "2025-12-11T07:10:31.732032",
        "meta_mean_motion": 14.01513994,
        "meta_eccentricity": 0.01987879,
        "meta_inclination": 74.0502,
        "meta_ra_of_asc_node": 350.1634,
        "meta_arg_of_pericenter": 88.7843,
        "meta_mean_anomaly": 273.6056,
        "meta_ephemeris_type": 0,
        "meta_classification_type": "U",
        "meta_norad_cat_id": 35895,
        "meta_element_set_no": 999,
        "meta_rev_at_epoch": 58992,
        "meta_bstar": 0.0020881347,
        "meta_mean_motion_dot": 3.73e-05,
        "meta_mean_motion_ddot": 0,
        "tle_line1": "1 35895U 93036AUJ 25345.29897838  .00003730  00000+0  20881-2 0  9997",
        "tle_line2": "2 35895  74.0502 350.1634 0198787  88.7843 273.6056 14.01513994589929"
      },
      "geometry": {
        "type": "Point",
        "coordinates": [
          160.7167040827341,
          -16.872585405216853
        ]
      }
    },
    {
      "type": "Feature",
      "properties": {
        "norad_id": 35898,
        "name": "COSMOS 2251 DEB",
        "group": "cosmos-2251-debris",
        "lat": -25.63976034112676,
        "lon": 111.47287914504426,
        "alt_km": 631.2331816036831,
        "timestamp": "2025-12-19T14:48:36.645059+00:00",
        "meta_object_name": "COSMOS 2251 DEB",
        "meta_object_id": "1993-036AUM",
        "meta_epoch": "2025-12-17T02:32:30.687072",
        "meta_mean_motion": 14.94779467,
        "meta_eccentricity": 0.00792454,
        "meta_inclination": 73.9918,
        "meta_ra_of_asc_node": 288.6268,
        "meta_arg_of_pericenter": 70.8936,
        "meta_mean_anomaly": 307.548,
        "meta_ephemeris_type": 0,
        "meta_classification_type": "U",
        "meta_norad_cat_id": 35898,
        "meta_element_set_no": 999,
        "meta_rev_at_epoch": 66875,
        "meta_bstar": 0.00065982938,
        "meta_mean_motion_dot": 7.606e-05,
        "meta_mean_motion_ddot": 0,
        "tle_line1": "1 35898U 93036AUM 25351.10591073  .00007606  00000+0  65983-3 0  9998",
        "tle_line2": "2 35898  73.9918 288.6268 0079245  70.8936 307.5480 14.94779467668759"
      },
      "geometry": {
        "type": "Point",
        "coordinates": [
          111.47287914504426,
          -25.63976034112676
        ]
      }
    },
    {
      "type": "Feature",
      "properties": {
        "norad_id": 35901,
        "name": "COSMOS 2251 DEB",
        "group": "cosmos-2251-debris",
        "lat": 17.712307128067206,
        "lon": -176.5455461533921,
        "alt_km": 548.5862023062637,
        "timestamp": "2025-12-19T14:48:36.645070+00:00",
        "meta_object_name": "COSMOS 2251 DEB",
        "meta_object_id": "1993-036AUQ",
        "meta_epoch": "2025-12-18T07:54:31.180320",
        "meta_mean_motion": 15.07563812,
        "meta_eccentricity": 0.00074748,
        "meta_inclination": 74.0102,
        "meta_ra_of_asc_node": 11.3599,
        "meta_arg_of_pericenter": 345.0376,
        "meta_mean_anomaly": 31.2157,
        "meta_ephemeris_type": 0,
        "meta_classification_type": "U",
        "meta_norad_cat_id": 35901,
        "meta_element_set_no": 999,
        "meta_rev_at_epoch": 86211,
        "meta_bstar": 0.0030424151,
        "meta_mean_motion_dot": 0.00046563,
        "meta_mean_motion_ddot": 0,
        "tle_line1": "1 35901U 93036AUQ 25352.32952755  .00046563  00000+0  30424-2 0  9992",
        "tle_line2": "2 35901  74.0102  11.3599 0007474 345.0376  31.2157 15.07563812862117"
      },
      "geometry": {
        "type": "Point",
        "coordinates": [
          -176.5455461533921,
          17.712307128067206
        ]
      }
    },
    {
      "type": "Feature",
      "properties": {
        "norad_id": 35902,
        "name": "COSMOS 2251 DEB",
        "group": "cosmos-2251-debris",
        "lat": -69.42392461274223,
        "lon": 92.02845669240982,
        "alt_km": 793.3790283102571,
        "timestamp": "2025-12-19T14:48:36.645080+00:00",
        "meta_object_name": "COSMOS 2251 DEB",
        "meta_object_id": "1993-036AUR",
        "meta_epoch": "2025-12-12T01:33:56.017152",
        "meta_mean_motion": 14.26898947,
        "meta_eccentricity": 0.01020569,
        "meta_inclination": 73.9828,
        "meta_ra_of_asc_node": 235.8058,
        "meta_arg_of_pericenter": 350.6999,
        "meta_mean_anomaly": 9.2255,
        "meta_ephemeris_type": 0,
        "meta_classification_type": "U",
        "meta_norad_cat_id": 35902,
        "meta_element_set_no": 999,
        "meta_rev_at_epoch": 61120,
        "meta_bstar": 0.0016300387,
        "meta_mean_motion_dot": 4.159e-05,
        "meta_mean_motion_ddot": 0,
        "tle_line1": "1 35902U 93036AUR 25346.06523168  .00004159  00000+0  16300-2 0  9991",
        "tle_line2": "2 35902  73.9828 235.8058 0102056 350.6999   9.2255 14.26898947611205"
      },
      "geometry": {
        "type": "Point",
        "coordinates": [
          92.02845669240982,
          -69.42392461274223
        ]
      }
    },
    {
      "type": "Feature",
      "properties": {
        "norad_id": 35905,
        "name": "COSMOS 2251 DEB",
        "group": "cosmos-2251-debris",
        "lat": -13.641469649602186,
        "lon": 20.835968046894934,
        "alt_km": 563.7255477897197,
        "timestamp": "2025-12-19T14:48:36.645090+00:00",
        "meta_object_name": "COSMOS 2251 DEB",
        "meta_object_id": "1993-036AUU",
        "meta_epoch": "2025-12-18T07:30:24.992928",
        "meta_mean_motion": 14.99094801,
        "meta_eccentricity": 0.00906852,
        "meta_inclination": 74.0306,
        "meta_ra_of_asc_node": 199.498,
        "meta_arg_of_pericenter": 278.2815,
        "meta_mean_anomaly": 80.8096,
        "meta_ephemeris_type": 0,
        "meta_classification_type": "U",
        "meta_norad_cat_id": 35905,
        "meta_element_set_no": 999,
        "meta_rev_at_epoch": 88666,
        "meta_bstar": 0.00045535942,
        "meta_mean_motion_dot": 5.988e-05,
        "meta_mean_motion_ddot": 0,
        "tle_line1": "1 35905U 93036AUU 25352.31278927  .00005988  00000+0  45536-3 0  9994",
        "tle_line2": "2 35905  74.0306 199.4980 0090685 278.2815  80.8096 14.99094801886665"
      },
      "geometry": {
        "type": "Point",
        "coordinates": [
          20.835968046894934,
          -13.641469649602186
        ]
      }
    }
  ]
}